{"type": "FeatureCollection", "features": [ {"type": "Feature", "properties": {"norad_id": 41175, "name": "GSAT0208 (GALILEO 11)", "group": "galileo", "lat": 49.82039134274361, "lon": 160.22641533971847, "alt_km": 23213.91702223504, "timestamp": "2025-12-11T15:53:39.805373+00:00", "meta": {"OBJECT_NAME": "GSAT0208 (GALILEO 11)", "OBJECT_ID": "2015-079B", "EPOCH": "2025-12-08T14:51:40.201056", "MEAN_MOTION": 1.70474231, "ECCENTRICITY": 0.0001859, "INCLINATION": 55.7088, "RA_OF_ASC_NODE": 106.4912, "ARG_OF_PERICENTER": 3.1611, "MEAN_ANOMALY": 356.8026, "EPHEMERIS_TYPE": 0, "CLASSIFICATION_TYPE": "U", "NORAD_CAT_ID": 41175, "ELEMENT_SET_NO": 999, "REV_AT_EPOCH": 6194, "BSTAR": 0, "MEAN_MOTION_DOT": 1e-07, "MEAN_MOTION_DDOT": 0}, "tle": {"line1": "1 41175U 15079B   25342.61921529  .00000010  00000+0  00000+0 0  9990", "line2": "2 41175  55.7088 106.4912 0001859   3.1611 356.8026  1.70474231 61940"}}, "geometry": {"type": "Point", "coordinates": [160.22641533971847, 49.82039134274361]}}, {"type": "Feature", "properties": {"norad_id": 41549, "name": "GSAT0211 (GALILEO 14)", "group": "galileo", "lat": -7.015482310984849, "lon": -138.05283673555553, "alt_km": 23212.525605780866, "timestamp": "2025-12-11T15:53:39.805384+00:00", "meta": {"OBJECT_NAME": "GSAT0211 (GALILEO 14)", "OBJECT_ID": "2016-030A", "EPOCH": "2025-12-07T13:40:58.264320", "MEAN_MOTION": 1.70472997, "ECCENTRICITY": 0.00040128, "INCLINATION": 55.154, "RA_OF_ASC_NODE": 226.9659, "ARG_OF_PERICENTER": 14.4678, "MEAN_ANOMALY": 345.6377, "EPHEMERIS_TYPE": 0, "CLASSIFICATION_TYPE": "U", "NORAD_CAT_ID": 41549, "ELEMENT_SET_NO": 999, "REV_AT_EPOCH": 5940, "BSTAR": 0, "MEAN_MOTION_DOT": 2.3e-07, "MEAN_MOTION_DDOT": 0}, "tle": {"line1": "1 41549U 16030A   25341.57011880  .00000023  00000+0  00000+0 0  9991", "line2": "2 41549  55.1540 226.9659 0004012  14.4678 345.6377  1.70472997 59400"}}, "geometry": {"type": "Point", "coordinates": [-138.05283673555553, -7.015482310984849]}}, {"type": "Feature", "properties": {"norad_id": 41550, "name": "GSAT0210 (GALILEO 13)", "group": "galileo", "lat": -11.048883304194716, "lon": 54.67085873643187, "alt_km": 23221.462676519008, "timestamp": "2025-12-11T15:53:39.805395+00:00", "meta": {"OBJECT_NAME": "GSAT0210 (GALILEO 13)", "OBJECT_ID": "2016-030B", "EPOCH": "2025-12-10T18:15:00.862560", "MEAN_MOTION": 1.7047362, "ECCENTRICITY": 0.00012729, "INCLINATION": 55.1522, "RA_OF_ASC_NODE": 226.8761, "ARG_OF_PERICENTER": 243.214, "MEAN_ANOMALY": 116.853, "EPHEMERIS_TYPE": 0, "CLASSIFICATION_TYPE": "U", "NORAD_CAT_ID": 41550, "ELEMENT_SET_NO": 999, "REV_AT_EPOCH": 5945, "BSTAR": 0, "MEAN_MOTION_DOT": 9e-08, "MEAN_MOTION_DDOT": 0}, "tle": {"line1": "1 41550U 16030B   25344.76042665  .00000009  00000+0  00000+0 0  9996", "line2": "2 41550  55.1522 226.8761 0001272 243.2140 116.8530  1.70473620 59454"}}, "geometry": {"type": "Point", "coordinates": [54.67085873643187, -11.048883304194716]}}, {"type": "Feature", "properties": {"norad_id": 41859, "name": "GSAT0207 (GALILEO 15)", "group": "galileo", "lat": 18.514446173728142, "lon": 119.63210250513244, "alt_km": 23216.58865226575, "timestamp": "2025-12-11T15:53:39.805406+00:00", "meta": {"OBJECT_NAME": "GSAT0207 (GALILEO 15)", "OBJECT_ID": "2016-069A", "EPOCH": "2025-12-09T20:46:23.344608", "MEAN_MOTION": 1.70474355, "ECCENTRICITY": 0.00021941, "INCLINATION": 55.3802, "RA_OF_ASC_NODE": 106.3298, "ARG_OF_PERICENTER": 323.9491, "MEAN_ANOMALY": 36.0038, "EPHEMERIS_TYPE": 0, "CLASSIFICATION_TYPE": "U", "NORAD_CAT_ID": 41859, "ELEMENT_SET_NO": 999, "REV_AT_EPOCH": 5617, "BSTAR": 0, "MEAN_MOTION_DOT": 1.1e-07, "MEAN_MOTION_DDOT": 0}, "tle": {"line1": "1 41859U 16069A   25343.86554797  .00000011  00000+0  00000+0 0  9997", "line2": "2 41859  55.3802 106.3298 0002194 323.9491  36.0038  1.70474355 56173"}}, "geometry": {"type": "Point", "coordinates": [119.63210250513244, 18.514446173728142]}}, {"type": "Feature", "properties": {"norad_id": 41860, "name": "GSAT0212 (GALILEO 16)", "group": "galileo", "lat": 49.46316045844556, "lon": -127.54558737277611, "alt_km": 23215.44317907485, "timestamp": "2025-12-11T15:53:39.805417+00:00", "meta": {"OBJECT_NAME": "GSAT0212 (GALILEO 16)", "OBJECT_ID": "2016-069B", "EPOCH": "2025-12-09T03:10:58.927872", "MEAN_MOTION": 1.70474546, "ECCENTRICITY": 0.00021877, "INCLINATION": 55.3778, "RA_OF_ASC_NODE": 106.3455, "ARG_OF_PERICENTER": 30.0277, "MEAN_ANOMALY": 329.9496, "EPHEMERIS_TYPE": 0, "CLASSIFICATION_TYPE": "U", "NORAD_CAT_ID": 41860, "ELEMENT_SET_NO": 999, "REV_AT_EPOCH": 5641, "BSTAR": 0, "MEAN_MOTION_DOT": 1e-07, "MEAN_MOTION_DDOT": 0}, "tle": {"line1": "1 41860U 16069B   25343.13262648  .00000010  00000+0  00000+0 0  9999", "line2": "2 41860  55.3778 106.3455 0002187  30.0277 329.9496  1.70474546 56413"}}, "geometry": {"type": "Point", "coordinates": [-127.54558737277611, 49.46316045844556]}}, {"type": "Feature", "properties": {"norad_id": 41861, "name": "GSAT0213 (GALILEO 17)", "group": "galileo", "lat": -49.207441187786294, "lon": -20.62193867085368, "alt_km": 23222.198553638817, "timestamp": "2025-12-11T15:53:39.805428+00:00", "meta": {"OBJECT_NAME": "GSAT0213 (GALILEO 17)", "OBJECT_ID": "2016-069C", "EPOCH": "2025-12-08T21:55:35.814144", "MEAN_MOTION": 1.70474823, "ECCENTRICITY": 0.00022753, "INCLINATION": 55.38, "RA_OF_ASC_NODE": 106.3592, "ARG_OF_PERICENTER": 283.5203, "MEAN_ANOMALY": 76.4183, "EPHEMERIS_TYPE": 0, "CLASSIFICATION_TYPE": "U", "NORAD_CAT_ID": 41861, "ELEMENT_SET_NO": 999, "REV_AT_EPOCH": 5627, "BSTAR": 0, "MEAN_MOTION_DOT": 1e-07, "MEAN_MOTION_DDOT": 0}, "tle": {"line1": "1 41861U 16069C   25342.91360896  .00000010  00000+0  00000+0 0  9999", "line2": "2 41861  55.3800 106.3592 0002275 283.5203  76.4183  1.70474823 56273"}}, "geometry": {"type": "Point", "coordinates": [-20.62193867085368, -49.207441187786294]}}, {"type": "Feature", "properties": {"norad_id": 41862, "name": "GSAT0214 (GALILEO 18)", "group": "galileo", "lat": 18.493180313475165, "lon": -87.0814193880204, "alt_km": 23222.6448766271, "timestamp": "2025-12-11T15:53:39.805438+00:00", "meta": {"OBJECT_NAME": "GSAT0214 (GALILEO 18)", "OBJECT_ID": "2016-069D", "EPOCH": "2025-12-10T19:39:52.929504", "MEAN_MOTION": 1.70474684, "ECCENTRICITY": 0.00013288, "INCLINATION": 55.3792, "RA_OF_ASC_NODE": 106.2992, "ARG_OF_PERICENTER": 290.9764, "MEAN_ANOMALY": 68.9794, "EPHEMERIS_TYPE": 0, "CLASSIFICATION_TYPE": "U", "NORAD_CAT_ID": 41862, "ELEMENT_SET_NO": 999, "REV_AT_EPOCH": 5643, "BSTAR": 0, "MEAN_MOTION_DOT": 1e-07, "MEAN_MOTION_DDOT": 0}, "tle": {"line1": "1 41862U 16069D   25344.81936261  .00000010  00000+0  00000+0 0  9996", "line2": "2 41862  55.3792 106.2992 0001328 290.9764  68.9794  1.70474684 56436"}}, "geometry": {"type": "Point", "coordinates": [-87.0814193880204, 18.493180313475165]}}, {"type": "Feature", "properties": {"norad_id": 43055, "name": "GSAT0215 (GALILEO 19)", "group": "galileo", "lat": -29.22286001312798, "lon": 69.61147023999952, "alt_km": 23228.25604248134, "timestamp": "2025-12-11T15:53:39.805457+00:00", "meta": {"OBJECT_NAME": "GSAT0215 (GALILEO 19)", "OBJECT_ID": "2017-079A", "EPOCH": "2025-12-09T13:11:41.418816", "MEAN_MOTION": 1.70473866, "ECCENTRICITY": 0.00012854, "INCLINATION": 55.1311, "RA_OF_ASC_NODE": 226.7257, "ARG_OF_PERICENTER": 343.8684, "MEAN_ANOMALY": 16.2123, "EPHEMERIS_TYPE": 0, "CLASSIFICATION_TYPE": "U", "NORAD_CAT_ID": 43055, "ELEMENT_SET_NO": 999, "REV_AT_EPOCH": 4975, "BSTAR": 0, "MEAN_MOTION_DOT": 1.1e-07, "MEAN_MOTION_DDOT": 0}, "tle": {"line1": "1 43055U 17079A   25343.54978494  .00000011  00000+0  00000+0 0  9998", "line2": "2 43055  55.1311 226.7257 0001285 343.8684  16.2123  1.70473866 49750"}}, "geometry": {"type": "Point", "coordinates": [69.61147023999952, -29.22286001312798]}}, {"type": "Feature", "properties": {"norad_id": 43056, "name": "GSAT0216 (GALILEO 20)", "group": "galileo", "lat": 30.14251768796649, "lon": -109.46399954489438, "alt_km": 23216.93964743614, "timestamp": "2025-12-11T15:53:39.805478+00:00", "meta": {"OBJECT_NAME": "GSAT0216 (GALILEO 20)", "OBJECT_ID": "2017-079B", "EPOCH": "2025-12-10T10:15:48.535776", "MEAN_MOTION": 1.70473969, "ECCENTRICITY": 0.000248, "INCLINATION": 55.1311, "RA_OF_ASC_NODE": 226.7014, "ARG_OF_PERICENTER": 319.9818, "MEAN_ANOMALY": 40.0811, "EPHEMERIS_TYPE": 0, "CLASSIFICATION_TYPE": "U", "NORAD_CAT_ID": 43056, "ELEMENT_SET_NO": 999, "REV_AT_EPOCH": 4978, "BSTAR": 0, "MEAN_MOTION_DOT": 9e-08, "MEAN_MOTION_DDOT": 0}, "tle": {"line1": "1 43056U 17079B   25344.42764509  .00000009  00000+0  00000+0 0  9994", "line2": "2 43056  55.1311 226.7014 0002480 319.9818  40.0811  1.70473969 49789"}}, "geometry": {"type": "Point", "coordinates": [-109.46399954489438, 30.14251768796649]}}, {"type": "Feature", "properties": {"norad_id": 43057, "name": "GSAT0217 (GALILEO 21)", "group": "galileo", "lat": -54.391293421356416, "lon": 123.28111067753613, "alt_km": 23226.847207218103, "timestamp": "2025-12-11T15:53:39.805510+00:00", "meta": {"OBJECT_NAME": "GSAT0217 (GALILEO 21)", "OBJECT_ID": "2017-079C", "EPOCH": "2025-12-10T01:28:57.302112", "MEAN_MOTION": 1.704739, "ECCENTRICITY": 0.00027944, "INCLINATION": 55.1293, "RA_OF_ASC_NODE": 226.7095, "ARG_OF_PERICENTER": 343.7549, "MEAN_ANOMALY": 16.3188, "EPHEMERIS_TYPE": 0, "CLASSIFICATION_TYPE": "U", "NORAD_CAT_ID": 43057, "ELEMENT_SET_NO": 999, "REV_AT_EPOCH": 4976, "BSTAR": 0, "MEAN_MOTION_DOT": 9e-08, "MEAN_MOTION_DDOT": 0}, "tle": {"line1": "1 43057U 17079C   25344.06177433  .00000009  00000+0  00000+0 0  9999", "line2": "2 43057  55.1293 226.7095 0002794 343.7549  16.3188  1.70473900 49768"}}, "geometry": {"type": "Point", "coordinates": [123.28111067753613, -54.391293421356416]}}]}